H1 CPF 01  gfz 2022 12 25 13  8592 terrasarx 
H2 0702601  6201 31698    2022 12 25 12 59 42 2022 12 30 00 00 42   120 1 1  0 0 0
H9
10 0 59942  48942.000000  0   -2801585.755  -6277601.046   -465587.857
10 0 59942  49062.000000  0   -2913898.299  -6094419.410  -1362023.524
10 0 59942  49182.000000  0   -2971190.755  -5803358.547  -2234514.136
10 0 59942  49302.000000  0   -2970672.248  -5410572.142  -3067751.872
10 0 59942  49422.000000  0   -2910691.642  -4924029.557  -3847150.873
10 0 59942  49542.000000  0   -2790790.994  -4353344.352  -4559103.439
10 0 59942  49662.000000  0   -2611734.237  -3709574.901  -5191214.012
10 0 59942  49782.000000  0   -2375511.405  -3005002.111  -5732508.201
10 0 59942  49902.000000  0   -2085318.577  -2252889.155  -6173614.357
10 0 59942  50022.000000  0   -1745513.127  -1467228.147  -6506915.453
10 0 59942  50142.000000  0   -1361546.199   -662479.150  -6726668.808
10 0 59942  50262.000000  0    -939875.090    146693.171  -6829093.896
10 0 59942  50382.000000  0    -487855.944    945680.757  -6812429.785
10 0 59942  50502.000000  0     -13617.756   1720189.041  -6676961.990
10 0 59942  50622.000000  0     474078.930   2456485.731  -6425018.442
10 0 59942  50742.000000  0     965999.891   3141640.104  -6060936.032
10 0 59942  50862.000000  0    1452608.444   3763748.429  -5590993.214
10 0 59942  50982.000000  0    1924245.997   4312140.925  -5023311.765
10 0 59942  51102.000000  0    2371321.058   4777568.876  -4367728.488
10 0 59942  51222.000000  0    2784502.573   5152368.173  -3635634.949
10 0 59942  51342.000000  0    3154913.413   5430594.149  -2839788.109
10 0 59942  51462.000000  0    3474321.153   5608125.940  -1994093.834
10 0 59942  51582.000000  0    3735320.675   5682735.819  -1113365.549
10 0 59942  51702.000000  0    3931503.487   5654122.051   -213062.475
10 0 59942  51822.000000  0    4057609.330   5523903.065    690987.280
10 0 59942  51942.000000  0    4109656.266   5295572.258   1582872.645
10 0 59942  52062.000000  0    4085045.227   4974414.882   2446886.853
10 0 59942  52182.000000  0    3982638.012   4567391.557   3267813.386
10 0 59942  52302.000000  0    3802802.792   4082984.572   4031202.273
10 0 59942  52422.000000  0    3547430.232   3531017.051   4723627.282
10 0 59942  52542.000000  0    3219918.743   2922449.663   5332925.892
10 0 59942  52662.000000  0    2825125.432   2269155.851   5848412.137
10 0 59942  52782.000000  0    2369291.634   1583684.951   6261057.817
10 0 59942  52902.000000  0    1859941.141    879017.251   6563645.636
10 0 59942  53022.000000  0    1305752.526    168316.335   6750888.556
10 0 59942  53142.000000  0     716409.224   -535315.537   6819516.996
10 0 59942  53262.000000  0     102429.690  -1219079.068   6768333.615
10 0 59942  53382.000000  0    -525020.622  -1870710.715   6598232.465
10 0 59942  53502.000000  0   -1154332.211  -2478702.641   6312183.562
10 0 59942  53622.000000  0   -1773664.658  -3032505.849   5915182.707
10 0 59942  53742.000000  0   -2371167.053  -3522714.356   5414170.619
10 0 59942  53862.000000  0   -2935206.078  -3941229.298   4817919.751
10 0 59942  53982.000000  0   -3454596.870  -4281398.233   4136886.405
10 0 59942  54102.000000  0   -3918828.535  -4538125.729   3383030.319
10 0 59942  54222.000000  0   -4318279.770  -4707953.904   2569606.222
10 0 59942  54342.000000  0   -4644421.546  -4789111.511   1710930.441
10 0 59942  54462.000000  0   -4890001.677  -4781528.710    822124.569
10 0 59942  54582.000000  0   -5049205.588  -4686816.843    -81157.358
10 0 59942  54702.000000  0   -5117789.679  -4508214.037   -983012.881
10 0 59942  54822.000000  0   -5093183.177  -4250497.615  -1867580.842
10 0 59942  54942.000000  0   -4974555.038  -3919864.628  -2719329.427
10 0 59942  55062.000000  0   -4762844.659  -3523784.870  -3523334.401
10 0 59942  55182.000000  0   -4460757.528  -3070831.610  -4265542.500
10 0 59942  55302.000000  0   -4072726.262  -2570494.035  -4933015.917
10 0 59942  55422.000000  0   -3604837.970  -2032975.876  -5514152.796
10 0 59942  55542.000000  0   -3064730.978  -1468985.700  -5998880.644
10 0 59942  55662.000000  0   -2461463.753   -889522.982  -6378820.675
10 0 59942  55782.000000  0   -1805358.046   -305664.707  -6647421.446
10 0 59942  55902.000000  0   -1107819.948    271643.138  -6800059.654
10 0 59942  56022.000000  0    -381144.167    831785.291  -6834110.157
10 0 59942  56142.000000  0     361698.019   1364667.496  -6748986.268
10 0 59942  56262.000000  0    1107283.514   1860892.987  -6546149.544
10 0 59942  56382.000000  0    1841975.096   2311925.391  -6229089.243
10 0 59942  56502.000000  0    2552165.969   2710234.209  -5803268.537
10 0 59942  56622.000000  0    3224528.535   3049420.717  -5276038.995
10 0 59942  56742.000000  0    3846262.276   3324322.304  -4656525.271
10 0 59942  56862.000000  0    4405339.812   3531095.001  -3955479.015
10 0 59942  56982.000000  0    4890744.721   3667270.386  -3185101.669
10 0 59942  57102.000000  0    5292694.599   3731785.508  -2358838.416
10 0 59942  57222.000000  0    5602845.173   3724985.992  -1491147.283
10 0 59942  57342.000000  0    5814470.521   3648599.956   -597245.367
10 0 59942  57462.000000  0    5922613.511   3505683.421    307161.513
10 0 59942  57582.000000  0    5924203.388   3300538.407   1206161.203
10 0 59942  57702.000000  0    5818135.479   3038604.839   2083923.791
10 0 59942  57822.000000  0    5605311.055   2726329.998   2924988.839
10 0 59942  57942.000000  0    5288636.953   2371018.223   3714546.541
10 0 59942  58062.000000  0    4872983.084   1980664.116   4438705.009
10 0 59942  58182.000000  0    4365100.612   1563774.707   5084736.348
10 0 59942  58302.000000  0    3773506.875   1129185.200   5641300.725
10 0 59942  58422.000000  0    3108332.465    685871.978   6098644.415
10 0 59942  58542.000000  0    2381138.992    242767.454   6448763.428
10 0 59942  58662.000000  0    1604714.058   -191417.908   6685536.834
10 0 59942  58782.000000  0     792843.746   -608365.624   6804829.577
10 0 59942  58902.000000  0     -39934.822  -1000308.042   6804560.416
10 0 59942  59022.000000  0    -878593.973  -1360172.247   6684735.030
10 0 59942  59142.000000  0   -1707885.928  -1681707.840   6447444.958
10 0 59942  59262.000000  0   -2512618.093  -1959595.013   6096832.195
10 0 59942  59382.000000  0   -3277929.788  -2189532.348   5639023.453
10 0 59942  59502.000000  0   -3989570.778  -2368305.324   5082031.238
10 0 59942  59622.000000  0   -4634171.985  -2493831.956   4435618.222
10 0 59942  59742.000000  0   -5199502.898  -2565184.173   3711129.949
10 0 59942  59862.000000  0   -5674710.543  -2582584.309   2921298.544
10 0 59942  59982.000000  0   -6050536.105  -2547377.852   2080020.435
10 0 59942  60102.000000  0   -6319504.573  -2461983.603   1202109.717
10 0 59942  60222.000000  0   -6476079.982  -2329819.775    303030.003
10 0 59942  60342.000000  0   -6516781.718  -2155208.378   -601385.365
10 0 59942  60462.000000  0   -6440260.929  -1943260.849  -1495221.839
10 0 59942  60582.000000  0   -6247331.848  -1699747.820  -2362772.824
10 0 59942  60702.000000  0   -5940959.764  -1430956.818  -3188822.246
10 0 59942  60822.000000  0   -5526206.550  -1143541.499  -3958915.197
10 0 59942  60942.000000  0   -5010135.844   -844366.315  -4659611.395
10 0 59942  61062.000000  0   -4401680.710   -540350.068  -5278716.776
10 0 59942  61182.000000  0   -3711476.840   -238312.758  -5805489.024
10 0 59942  61302.000000  0   -2951666.581     55171.202  -6230813.692
10 0 59942  61422.000000  0   -2135679.379    333910.090  -6547349.717
10 0 59942  61542.000000  0   -1277992.219    592219.239  -6749644.851
10 0 59942  61662.000000  0    -393874.327    825031.738  -6834219.441
10 0 59942  61782.000000  0     500879.109   1027994.429  -6799618.497
10 0 59942  61902.000000  0    1390220.945   1197545.998  -6646435.249
10 0 59942  62022.000000  0    2258134.234   1330978.464  -6377304.076
10 0 59942  62142.000000  0    3088915.388   1426480.321  -5996859.820
10 0 59942  62262.000000  0    3867454.423   1483159.974  -5511664.993
10 0 59942  62382.000000  0    4579507.802   1501049.736  -4930107.634
10 0 59942  62502.000000  0    5211962.598   1481090.632  -4262268.322
10 0 59942  62622.000000  0    5753084.550   1425097.485  -3519755.207
10 0 59942  62742.000000  0    6192744.615   1335704.618  -2715510.788
10 0 59942  62862.000000  0    6522620.500   1216293.312  -1863592.308
10 0 59942  62982.000000  0    6736366.963   1070902.466   -978926.958
10 0 59942  63102.000000  0    6829748.792    904123.510    -77047.326
10 0 59942  63222.000000  0    6800732.136    720983.022    826187.215
10 0 59942  63342.000000  0    6649533.567    526815.953   1714876.085
10 0 59942  63462.000000  0    6378624.601    327131.084   2573367.142
10 0 59942  63582.000000  0    5992688.302    127473.776   3386541.212
10 0 59942  63702.000000  0    5498532.465    -66711.419   4140085.376
10 0 59942  63822.000000  0    4904960.473   -250212.834   4820748.135
10 0 59942  63942.000000  0    4222605.664   -418177.492   5416574.863
10 0 59942  64062.000000  0    3463729.106   -566226.999   5917115.771
10 0 59942  64182.000000  0    2641990.704   -690559.428   6313604.369
10 0 59942  64302.000000  0    1772196.963   -788037.065   6599105.225
10 0 59942  64422.000000  0     870030.130   -856257.807   6768630.450
10 0 59942  64542.000000  0     -48237.980   -893608.997   6819221.411
10 0 59942  64662.000000  0    -966039.673   -899302.550   6749995.796
10 0 59942  64782.000000  0   -1866809.019   -873391.246   6562161.362
10 0 59942  64902.000000  0   -2734279.182   -816765.121   6258995.770
10 0 59942  65022.000000  0   -3552775.245   -731128.521   5845794.122
10 0 59942  65142.000000  0   -4307500.288   -618958.346   5329783.375
10 0 59942  65262.000000  0   -4984808.822   -483444.494   4720002.360
10 0 59942  65382.000000  0   -5572461.112   -328412.856   4027148.139
99
